{
  "type": "FeatureCollection",
  "features": [
    {
      "type": "Feature",
      "properties": {
        "norad_id": 33822,
        "name": "COSMOS 2251 DEB",
        "group": "cosmos-2251-debris",
        "lat": 44.41456702475129,
        "lon": -20.590862515402417,
        "alt_km": 835.7116655055643,
        "timestamp": "2025-12-22T22:44:21.371843+00:00",
        "meta_object_name": "COSMOS 2251 DEB",
        "meta_object_id": "1993-036BP",
        "meta_epoch": "2025-12-21T22:56:07.338336",
        "meta_mean_motion": 14.13113625,
        "meta_eccentricity": 0.0152823,
        "meta_inclination": 74.0677,
        "meta_ra_of_asc_node": 177.4121,
        "meta_arg_of_pericenter": 221.4815,
        "meta_mean_anomaly": 269.8267,
        "meta_ephemeris_type": 0,
        "meta_classification_type": "U",
        "meta_norad_cat_id": 33822,
        "meta_element_set_no": 999,
        "meta_rev_at_epoch": 86184,
        "meta_bstar": 0.0013099656,
        "meta_mean_motion_dot": 2.711e-05,
        "meta_mean_motion_ddot": 0,
        "tle_line1": "1 33822U 93036BP  25355.95564049  .00002711  00000+0  13100-2 0  9998",
        "tle_line2": "2 33822  74.0677 177.4121 0152823 221.4815 269.8267 14.13113625861842"
      },
      "geometry": {
        "type": "Point",
        "coordinates": [
          -20.590862515402417,
          44.41456702475129
        ]
      }
    },
    {
      "type": "Feature",
      "properties": {
        "norad_id": 33823,
        "name": "COSMOS 2251 DEB",
        "group": "cosmos-2251-debris",
        "lat": 22.675819878483708,
        "lon": -55.531457525278554,
        "alt_km": 916.561372816469,
        "timestamp": "2025-12-22T22:44:21.371854+00:00",
        "meta_object_name": "COSMOS 2251 DEB",
        "meta_object_id": "1993-036BQ",
        "meta_epoch": "2025-12-22T08:20:25.259712",
        "meta_mean_motion": 13.98973529,
        "meta_eccentricity": 0.0209434,
        "meta_inclination": 73.8097,
        "meta_ra_of_asc_node": 132.4917,
        "meta_arg_of_pericenter": 256.1122,
        "meta_mean_anomaly": 122.0936,
        "meta_ephemeris_type": 0,
        "meta_classification_type": "U",
        "meta_norad_cat_id": 33823,
        "meta_element_set_no": 999,
        "meta_rev_at_epoch": 85744,
        "meta_bstar": 0.00073521704,
        "meta_mean_motion_dot": 1.255e-05,
        "meta_mean_motion_ddot": 0,
        "tle_line1": "1 33823U 93036BQ  25356.34751458  .00001255  00000+0  73522-3 0  9992",
        "tle_line2": "2 33823  73.8097 132.4917 0209434 256.1122 122.0936 13.98973529857440"
      },
      "geometry": {
        "type": "Point",
        "coordinates": [
          -55.531457525278554,
          22.675819878483708
        ]
      }
    },
    {
      "type": "Feature",
      "properties": {
        "norad_id": 33825,
        "name": "COSMOS 2251 DEB",
        "group": "cosmos-2251-debris",
        "lat": -65.11696922153735,
        "lon": -133.7974740734664,
        "alt_km": 659.4959497118052,
        "timestamp": "2025-12-22T22:44:21.371865+00:00",
        "meta_object_name": "COSMOS 2251 DEB",
        "meta_object_id": "1993-036BS",
        "meta_epoch": "2025-12-22T12:32:21.492672",
        "meta_mean_motion": 14.69848953,
        "meta_eccentricity": 0.00850356,
        "meta_inclination": 73.9844,
        "meta_ra_of_asc_node": 8.766,
        "meta_arg_of_pericenter": 333.5214,
        "meta_mean_anomaly": 190.1724,
        "meta_ephemeris_type": 0,
        "meta_classification_type": "U",
        "meta_norad_cat_id": 33825,
        "meta_element_set_no": 999,
        "meta_rev_at_epoch": 89023,
        "meta_bstar": 0.00093715546,
        "meta_mean_motion_dot": 5.892e-05,
        "meta_mean_motion_ddot": 0,
        "tle_line1": "1 33825U 93036BS  25356.52247098  .00005892  00000+0  93716-3 0  9992",
        "tle_line2": "2 33825  73.9844   8.7660 0085035 333.5214 190.1724 14.69848953890230"
      },
      "geometry": {
        "type": "Point",
        "coordinates": [
          -133.7974740734664,
          -65.11696922153735
        ]
      }
    },
    {
      "type": "Feature",
      "properties": {
        "norad_id": 33826,
        "name": "COSMOS 2251 DEB",
        "group": "cosmos-2251-debris",
        "lat": -18.338094458820162,
        "lon": -143.8808058628063,
        "alt_km": 759.8003134833889,
        "timestamp": "2025-12-22T22:44:21.371876+00:00",
        "meta_object_name": "COSMOS 2251 DEB",
        "meta_object_id": "1993-036BT",
        "meta_epoch": "2025-12-22T12:28:49.908576",
        "meta_mean_motion": 14.51764954,
        "meta_eccentricity": 0.00825487,
        "meta_inclination": 74.0637,
        "meta_ra_of_asc_node": 31.4881,
        "meta_arg_of_pericenter": 72.561,
        "meta_mean_anomaly": 52.5912,
        "meta_ephemeris_type": 0,
        "meta_classification_type": "U",
        "meta_norad_cat_id": 33826,
        "meta_element_set_no": 999,
        "meta_rev_at_epoch": 87911,
        "meta_bstar": 0.00048854708,
        "meta_mean_motion_dot": 2.024e-05,
        "meta_mean_motion_ddot": 0,
        "tle_line1": "1 33826U 93036BT  25356.52002209  .00002024  00000+0  48855-3 0  9994",
        "tle_line2": "2 33826  74.0637  31.4881 0082548  72.5610  52.5912 14.51764954879110"
      },
      "geometry": {
        "type": "Point",
        "coordinates": [
          -143.8808058628063,
          -18.338094458820162
        ]
      }
    },
    {
      "type": "Feature",
      "properties": {
        "norad_id": 33828,
        "name": "COSMOS 2251 DEB",
        "group": "cosmos-2251-debris",
        "lat": -2.9537096594471453,
        "lon": 39.954410042652164,
        "alt_km": 753.3806440453873,
        "timestamp": "2025-12-22T22:44:21.371887+00:00",
        "meta_object_name": "COSMOS 2251 DEB",
        "meta_object_id": "1993-036BV",
        "meta_epoch": "2025-12-22T09:25:37.367904",
        "meta_mean_motion": 14.44359637,
        "meta_eccentricity": 0.00295237,
        "meta_inclination": 74.0452,
        "meta_ra_of_asc_node": 220.1398,
        "meta_arg_of_pericenter": 291.5918,
        "meta_mean_anomaly": 248.7099,
        "meta_ephemeris_type": 0,
        "meta_classification_type": "U",
        "meta_norad_cat_id": 33828,
        "meta_element_set_no": 999,
        "meta_rev_at_epoch": 88452,
        "meta_bstar": 0.00036091324,
        "meta_mean_motion_dot": 1.222e-05,
        "meta_mean_motion_ddot": 0,
        "tle_line1": "1 33828U 93036BV  25356.39279361  .00001222  00000+0  36091-3 0  9994",
        "tle_line2": "2 33828  74.0452 220.1398 0029523 291.5918 248.7099 14.44359637884521"
      },
      "geometry": {
        "type": "Point",
        "coordinates": [
          39.954410042652164,
          -2.9537096594471453
        ]
      }
    },
    {
      "type": "Feature",
      "properties": {
        "norad_id": 33830,
        "name": "COSMOS 2251 DEB",
        "group": "cosmos-2251-debris",
        "lat": 4.615156886887261,
        "lon": 29.027377437126084,
        "alt_km": 667.5473164167661,
        "timestamp": "2025-12-22T22:44:21.371898+00:00",
        "meta_object_name": "COSMOS 2251 DEB",
        "meta_object_id": "1993-036BX",
        "meta_epoch": "2025-12-22T08:06:14.362272",
        "meta_mean_motion": 14.76994349,
        "meta_eccentricity": 0.00426812,
        "meta_inclination": 74.0307,
        "meta_ra_of_asc_node": 211.5473,
        "meta_arg_of_pericenter": 329.6076,
        "meta_mean_anomaly": 204.6091,
        "meta_ephemeris_type": 0,
        "meta_classification_type": "U",
        "meta_norad_cat_id": 33830,
        "meta_element_set_no": 999,
        "meta_rev_at_epoch": 89613,
        "meta_bstar": 0.00074245491,
        "meta_mean_motion_dot": 5.281e-05,
        "meta_mean_motion_ddot": 0,
        "tle_line1": "1 33830U 93036BX  25356.33766623  .00005281  00000+0  74245-3 0  9995",
        "tle_line2": "2 33830  74.0307 211.5473 0042681 329.6076 204.6091 14.76994349896132"
      },
      "geometry": {
        "type": "Point",
        "coordinates": [
          29.027377437126084,
          4.615156886887261
        ]
      }
    },
    {
      "type": "Feature",
      "properties": {
        "norad_id": 33832,
        "name": "COSMOS 2251 DEB",
        "group": "cosmos-2251-debris",
        "lat": -10.552866994805747,
        "lon": -172.55679118797556,
        "alt_km": 705.5225527614684,
        "timestamp": "2025-12-22T22:44:21.371908+00:00",
        "meta_object_name": "COSMOS 2251 DEB",
        "meta_object_id": "1993-036BZ",
        "meta_epoch": "2025-12-22T13:04:08.288832",
        "meta_mean_motion": 14.60753028,
        "meta_eccentricity": 0.0024213,
        "meta_inclination": 74.0527,
        "meta_ra_of_asc_node": 191.2654,
        "meta_arg_of_pericenter": 220.4049,
        "meta_mean_anomaly": 170.4978,
        "meta_ephemeris_type": 0,
        "meta_classification_type": "U",
        "meta_norad_cat_id": 33832,
        "meta_element_set_no": 999,
        "meta_rev_at_epoch": 88568,
        "meta_bstar": 0.0012625694,
        "meta_mean_motion_dot": 6.161e-05,
        "meta_mean_motion_ddot": 0,
        "tle_line1": "1 33832U 93036BZ  25356.54454038  .00006161  00000+0  12626-2 0  9996",
        "tle_line2": "2 33832  74.0527 191.2654 0024213 220.4049 170.4978 14.60753028885684"
      },
      "geometry": {
        "type": "Point",
        "coordinates": [
          -172.55679118797556,
          -10.552866994805747
        ]
      }
    }
  ]
}